[Satellite]
VERSION=1.1
NAME=SENTINEL-3A
NICKNAME=SENTINEL-3A
TLE1=1 41335U 16011A   17186.25262432 -.00000000  00000-0  17914-4 0  9991
TLE2=2 41335  98.6236 253.4451 0001392  91.8055 268.3285 14.26739435 71937
